1 01814U 65101A   21232.45568643  .00000088  00000-0  18684-4 0  9995
2 01814  75.8681 137.3282 0005783 134.3154 225.8500 14.66756819797447
1 01814U 65101A   21232.72852440  .00000087  00000-0  18481-4 0  9990
2 01814  75.8681 136.8611 0005784 133.5885 226.5775 14.66756885797489
1  1814U 65101A   21232.72852440  .00000087  00000-0  18481-4 0  9990
2  1814  75.8681 136.8611 0005784 133.5885 226.5775 14.66756885818539
1 01814U 65101A   21233.47882873  .00000101  00000-0  21071-4 0  9992
2 01814  75.8680 135.5766 0005770 131.5452 228.6223 14.66757105797597
1 01814U 65101A   21233.75166662  .00000105  00000-0  21645-4 0  9995
2 01814  75.8680 135.1095 0005772 130.8163 229.3518 14.66757204797631
1  1814U 65101A   21233.75166662  .00000105  00000-0  21645-4 0  9995
2  1814  75.8680 135.1095 0005772 130.8163 229.3518 14.66757204818680
1 01814U 65101A   21234.43376136  .00000117  00000-0  23939-4 0  9991
2 01814  75.8679 133.9418 0005765 128.9095 231.2599 14.66757398797734
1 01814U 65101A   21234.70659922  .00000121  00000-0  24615-4 0  9995
2 01814  75.8679 133.4747 0005765 128.1764 231.9935 14.66757494797771
1 01814U 65101A   21235.45690331  .00000116  00000-0  23736-4 0  9994
2 01814  75.8678 132.1902 0005740 126.1557 234.0154 14.66757608797886
1 01814U 65101A   21235.86615999  .00000116  00000-0  23612-4 0  9999
2 01814  75.8678 131.4895 0005737 125.0873 235.0845 14.66757711797944
1  1814U 65101A   21236.13899782  .00000129  00000-0  25978-4 0  9995
2  1814  75.8678 131.0224 0005732 124.3218 235.8505 14.66757819819031
1 01814U 65101A   21236.41183559  .00000131  00000-0  26438-4 0  9999
2 01814  75.8678 130.5553 0005733 123.5224 236.6504 14.66757906798029
1 01814U 65101A   21236.82109218  .00000110  00000-0  22696-4 0  9993
2 01814  75.8677 129.8547 0005727 122.4556 237.7177 14.66757916798086
1 01814U 65101A   21237.16213936  .00000137  00000-0  27380-4 0  9998
2 01814  75.8677 129.2708 0005718 121.5367 238.6372 14.66758124798134
1  1814U 65101A   21237.16213936  .00000137  00000-0  27380-4 0  9998
2  1814  75.8677 129.2708 0005718 121.5367 238.6372 14.66758124819183
1 01814U 65101A   21237.84423352  .00000136  00000-0  27298-4 0  9995
2 01814  75.8677 128.1031 0005713 119.6883 240.4866 14.66758337798233
1 01814U 65101A   21238.11707124  .00000138  00000-0  27715-4 0  9994
2 01814  75.8676 127.6360 0005708 118.9551 241.2202 14.66758390798275
1 01814U 65101A   21239.14021233  .00000138  00000-0  27717-4 0  9990
2 01814  75.8675 125.8843 0005696 116.1781 243.9984 14.66758674798429
1  1814U 65101A   21239.14021233  .00000138  00000-0  27717-4 0  9990
2  1814  75.8675 125.8843 0005696 116.1781 243.9984 14.66758674819478
1 01814U 65101A   21239.82230616  .00000132  00000-0  26548-4 0  9997
2 01814  75.8675 124.7165 0005687 114.3399 245.8374 14.66758878798520
1 01814U 65101A   21240.16335289  .00000219  00000-0  42241-4 0  9992
2 01814  75.8674 124.1326 0005681 113.4049 246.7728 14.66759492798579
1  1814U 65101A   21240.16335289  .00000219  00000-0  42241-4 0  9992
2  1814  75.8674 124.1326 0005681 113.4049 246.7728 14.66759492819629
1 01814U 65101A   21240.77723717  .00000238  00000-0  45614-4 0  9994
2 01814  75.8673 123.0816 0005690 111.7255 248.4531 14.66759820798666
1 01814U 65101A   21241.39112129  .00000244  00000-0  46572-4 0  9993
2 01814  75.8673 122.0306 0005689 109.9986 250.1807 14.66760087798750
1  1814U 65101A   21241.39112129  .00000244  00000-0  46572-4 0  9993
2  1814  75.8673 122.0306 0005689 109.9986 250.1807 14.66760087819800
1 01814U 65101A   21241.93679598  .00000224  00000-0  42979-4 0  9996
2 01814  75.8672 121.0963 0005682 108.5609 251.6188 14.66760192798831
1 01814U 65101A   21242.41426126  .00000225  00000-0  43294-4 0  9999
2 01814  75.8671 120.2788 0005686 107.2227 252.9575 14.66760404798900
1  1814U 65101A   21242.41426126  .00000225  00000-0  43294-4 0  9999
2  1814  75.8671 120.2788 0005686 107.2227 252.9575 14.66760404819959
1 01814U 65101A   21242.75530784  .00000223  00000-0  42963-4 0  9992
2 01814  75.8671 119.6949 0005686 106.3126 253.8679 14.66760547798957
1 01814U 65101A   21243.09635482  .00000170  00000-0  33341-4 0  9992
2 01814  75.8670 119.1110 0005686 105.3687 254.8121 14.66760248799000
1 01814U 65101A   21243.36919221  .00000163  00000-0  32162-4 0  9990
2 01814  75.8670 118.6438 0005692 104.5777 255.6034 14.66760280799047
1 01814U 65101A   21243.77844803  .00000164  00000-0  32360-4 0  9999
2 01814  75.8669 117.9432 0005695 103.4972 256.6842 14.66760463799107
1 01814U 65101A   21244.11949472  .00000149  00000-0  29588-4 0  9997
2 01814  75.8669 117.3592 0005685 102.5518 257.6297 14.66760435799152
1 01814U 65101A   21244.93800631  .00000152  00000-0  30213-4 0  9991
2 01814  75.8667 115.9577 0005689 100.3754 259.8067 14.66760708799274
1  1814U 65101A   21245.07442491  .00000152  00000-0  30139-4 0  9990
2  1814  75.8667 115.7241 0005684  99.9646 260.2175 14.66760747820340
1 01814U 65101A   21245.34726215  .00000139  00000-0  27894-4 0  9998
2 01814  75.8667 115.2570 0005691  99.1896 260.9927 14.66760747799333
1 01814U 65101A   21245.89293635  .00000147  00000-0  29189-4 0  9991
2 01814  75.8666 114.3226 0005680  97.7301 262.4523 14.66760962799410
1 01814U 65101A   21246.37040136  .00000131  00000-0  26378-4 0  9991
2 01814  75.8665 113.5051 0005671  96.3592 263.8233 14.66761000799487
1  1814U 65101A   21246.37040136  .00000131  00000-0  26378-4 0  9991
2  1814  75.8665 113.5051 0005671  96.3592 263.8233 14.66761000820538
1 01814U 65101A   21246.91607546  .00000143  00000-0  28582-4 0  9997
2 01814  75.8664 112.5708 0005673  94.9370 265.2457 14.66761222799563
1 01814U 65101A   21247.32533109  .00000145  00000-0  28969-4 0  9997
2 01814  75.8663 111.8700 0005671  93.7387 266.4441 14.66761335799627
1 01814U 65101A   21247.87100510  .00000152  00000-0  30235-4 0  9990
2 01814  75.8662 110.9357 0005668  92.2909 267.8919 14.66761518799701
1  1814U 65101A   21247.87100510  .00000152  00000-0  30235-4 0  9990
2  1814  75.8662 110.9357 0005668  92.2909 267.8919 14.66761518820751
1 01814U 65101A   21248.34846988  .00000149  00000-0  29689-4 0  9996
2 01814  75.8662 110.1181 0005677  90.9889 269.1941 14.66761639799771
1 01814U 65101A   21249.03056223  .00000149  00000-0  29625-4 0  9998
2 01814  75.8661 108.9502 0005676  89.1543 271.0286 14.66761840799877
1  1814U 65101A   21249.03056223  .00000149  00000-0  29625-4 0  9998
2  1814  75.8661 108.9502 0005676  89.1543 271.0286 14.66761840820928
1 01814U 65101A   21249.84907295  .00000147  00000-0  29322-4 0  9993
2 01814  75.8660 107.5487 0005680  86.9585 273.2245 14.66762062799998
1 01814U 65101A   21250.05370062  .00000146  00000-0  29035-4 0  9994
2 01814  75.8660 107.1983 0005682  86.3661 273.8169 14.66762119800027
1  1814U 65101A   21250.05370062  .00000146  00000-0  29035-4 0  9994
2  1814  75.8660 107.1983 0005682  86.3661 273.8169 14.66762119821075
1 01814U 65101A   21250.87221111  .00000138  00000-0  27718-4 0  9991
2 01814  75.8660 105.7969 0005691  84.1757 276.0071 14.66762349800142
1  1814U 65101A   21251.55430306  .00000140  00000-0  28034-4 0  9990
2  1814  75.8659 104.6289 0005698  82.3214 277.8612 14.66762593821298
1 01814U 65101A   21251.62251220  .00000141  00000-0  28185-4 0  9992
2 01814  75.8659 104.5121 0005701  82.1486 278.0340 14.66762643800256
1 01814U 65101A   21252.03176729  .00000143  00000-0  28456-4 0  9991
2 01814  75.8659 103.8113 0005705  81.0569 279.1256 14.66762773800312
1 01814U 65101A   21252.78206816  .00000132  00000-0  26523-4 0  9995
2 01814  75.8658 102.5266 0005715  79.0292 281.1530 14.66762994800422
1  1814U 65101A   21252.98669569  .00000128  00000-0  25834-4 0  9994
2  1814  75.8658 102.1762 0005715  78.4858 281.6963 14.66763030821509
1 01814U 65101A   21253.60057812  .00000131  00000-0  26307-4 0  9996
2 01814  75.8657 101.1250 0005723  76.8113 283.3704 14.66763264800546
1 01814U 65101A   21253.73699639  .00000134  00000-0  26949-4 0  9994
2 01814  75.8657 100.8914 0005726  76.4800 283.7016 14.66763326800562
1  1814U 65101A   21254.00983302  .00000138  00000-0  27553-4 0  9994
2  1814  75.8657 100.4242 0005728  75.7149 284.4667 14.66763414821653
1 01814U 65101A   21254.55550615  .00000140  00000-0  27975-4 0  9992
2 01814  75.8657  99.4899 0005744  74.2790 285.9022 14.66763638800681
1 01814U 65101A   21254.89655179  .00000144  00000-0  28642-4 0  9996
2 01814  75.8657  98.9058 0005743  73.4117 286.7693 14.66763754800733
1  1814U 65101A   21255.03297006  .00000139  00000-0  27759-4 0  9996
2  1814  75.8656  98.6722 0005744  72.9608 287.2200 14.66763780821807
1 01814U 65101A   21255.51043394  .00000134  00000-0  27010-4 0  9993
2 01814  75.8656  97.8546 0005752  71.6766 288.5039 14.66763920800821
1 01814U 65101A   21255.78327043  .00000132  00000-0  26515-4 0  9995
2 01814  75.8656  97.3874 0005751  70.9643 289.2158 14.66763968800861
1  1814U 65101A   21256.26073426  .00000131  00000-0  26454-4 0  9993
2  1814  75.8655  96.5698 0005758  69.6552 290.5245 14.66764105821988
1 01814U 65101A   21256.53357071  .00000136  00000-0  27303-4 0  9993
2 01814  75.8655  96.1026 0005762  68.9673 291.2122 14.66764213800978
1 01814U 65101A   21256.66998891  .00000133  00000-0  26713-4 0  9999
2 01814  75.8655  95.8689 0005762  68.5806 291.5988 14.66764237800994
1 01814U 65101A   21257.48849810  .00000137  00000-0  27536-4 0  9994
2 01814  75.8654  94.4673 0005771  66.3429 293.8356 14.66764496801114
1  1814U 65101A   21257.48849810  .00000137  00000-0  27536-4 0  9994
2  1814  75.8654  94.4673 0005771  66.3429 293.8356 14.66764496822162
1 01814U 65101A   21257.82954356  .00000136  00000-0  27327-4 0  9991
2 01814  75.8654  93.8833 0005770  65.3777 294.8003 14.66764561801167
1  1814U 65101A   21258.51163444  .00000139  00000-0  27892-4 0  9998
2  1814  75.8654  92.7152 0005782  63.5124 296.6648 14.66764765822319
1 01814U 65101A   21258.92088890  .00000139  00000-0  27893-4 0  9995
2 01814  75.8654  92.0144 0005783  62.3961 297.7805 14.66764856801326
